STARLINK-1434           
1 45712U 20035BH  26068.24137979  .00054112  00000+0  20295-2 0  9995
2 45712  53.0547  22.1128 0005343  88.0400 272.1210 15.26724568319325
STARLINK-35693          
1 66490U 25263F   26068.11325060  .00026761  00000+0  97874-3 0  9992
2 66490  43.0037 353.7070 0001521 279.7392  80.3287 15.27570779 18813
